STARLINK-1052           
1 44757U 19074AW  23130.45067410  .00001537  00000+0  12207-3 0  9994
2 44757  53.0523 169.4934 0001391  92.8095 267.3053 15.06391203192581
STARLINK-1053           
1 44758U 19074AX  23130.46726985  .00023253  00000+0  15752-2 0  9991
2 44758  53.0520 189.5114 0001087  88.8495 271.2618 15.06390651192311
STARLINK-1054           
1 44759U 19074AY  23130.44882470  .00024146  00000+0  16352-2 0  9991
2 44759  53.0524 189.5031 0001192  91.7052 268.4073 15.06381256189953
STARLINK-1055           
1 44760U 19074AZ  23130.41067429  .00031604  00000+0  16723-2 0  9998
2 44760  53.0506 185.9460 0003286  11.2547 348.8519 15.15192952192363
STARLINK-1056           
1 44761U 19074BA  23130.51148612  .00000831  00000+0  74703-4 0  9996
2 44761  53.0530 189.2235 0001409  99.0149 261.1000 15.06387731192324
STARLINK-1057           
1 44762U 19074BB  23130.38063889  .00008577  00000+0  59394-3 0  9997
2 44762  53.0521 169.8100 0001363  85.6277 274.4868 15.06403151192573
STARLINK-1058           
1 44763U 19074BC  23130.39996134  .00004188  00000+0  29997-3 0  9997
2 44763  53.0545 189.7280 0002217 133.6586 226.4587 15.06389934192304
STARLINK-1059           
1 44764U 19074BD  23130.34910968  .00010156  00000+0  46073-3 0  9990
2 44764  53.0602 156.4996 0004520 356.6522   3.4442 15.21400254192769
STARLINK-1060           
1 44765U 19074BE  23130.32903190  .00007825  00000+0  54358-3 0  9992
2 44765  53.0527 170.0443 0001216  98.9400 261.1727 15.06403184192560
STARLINK-1061           
1 44766U 19074BF  23130.52623055  .00008771  00000+0  60704-3 0  9997
2 44766  53.0537 189.1595 0001530 111.6095 248.5057 15.06396484192326
STARLINK-1062           
1 44767U 19074BG  23130.45157321  .00016902  00000+0  11509-2 0  9991
2 44767  53.0517 189.4801 0001315  69.3643 290.7487 15.06397842192311
STARLINK-1063           
1 44768U 19074BH  23130.47462450  .00003076  00000+0  22535-3 0  9996
2 44768  53.0516 189.3903 0001149  92.6445 267.4675 15.06389636192320
STARLINK-1067           
1 44771U 19074BL  23130.39722093  .00021511  00000+0  14593-2 0  9991
2 44771  53.0527 189.7358 0001064  90.4059 269.7052 15.06382389192307
STARLINK-1068           
1 44772U 19074BM  23130.38801332 -.00001441  00000+0 -77912-4 0  9993
2 44772  53.0524 169.7782 0001163 133.9812 226.1273 15.06386028192579
JILIN-01 GAOFEN 2A      
1 44777U 19075A   23130.49509360  .00007133  00000+0  41501-3 0  9993
2 44777  97.6319 189.9484 0003662 249.3560 224.1491 15.12354527192274
NINGXIA-1 1             
1 44779U 19076A   23130.42967929 -.00000030  00000+0  65098-4 0  9996
2 44779  45.0064 205.2332 0010581 198.1479 161.8968 14.01776440178765
NINGXIA-1 2             
1 44780U 19076B   23130.55815587 -.00000044  00000+0  56106-4 0  9999
2 44780  45.0101 204.7808 0008198 193.6846 166.3767 14.01762343178786
NINGXIA-1 3             
1 44781U 19076C   23130.54404855 -.00000027  00000+0  66945-4 0  9994
2 44781  45.0011 203.8243 0009510 182.5073 177.5712 14.01784182178787
NINGXIA-1 4             
1 44782U 19076D   23130.52815559 -.00000031  00000+0  64185-4 0  9999
2 44782  45.0098 204.5659 0012709 167.5369 192.5780 14.01786410178785
NINGXIA-1 5             
1 44783U 19076E   23130.51584060 -.00000041  00000+0  58060-4 0  9995
2 44783  45.0066 204.2279 0011326 185.9645 174.1056 14.01784003178789
KL-ALPHA A              
1 44785U 19077A   23130.51396983  .00000111  00000+0  14179-3 0  9992
2 44785  88.9240 348.0840 0010742 163.1291 197.0222 13.55858539172101
KL-ALPHA B              
1 44786U 19077B   23130.49277268  .00000080  00000+0  97330-4 0  9990
2 44786  88.9099 347.3400 0024861 211.2564 148.7116 13.55829650171558
BEIDOU-3 M22            
1 44793U 19078A   23128.42688919 -.00000063  00000+0  10000-3 0  9998
2 44793  54.8268 339.4119 0007306  21.8818 334.5035  1.86232190 23499
BEIDOU-3 M21            
1 44794U 19078B   23128.29563178 -.00000063  00000+0  00000+0 0  9998
2 44794  54.8004 339.4015 0005178  19.4992 161.1332  1.86232686 23498
COSMOS 2542             
1 44797U 19079A   23130.52532601  .00081296  00000+0  11182-2 0  9990
2 44797  97.6435 222.4669 0011332 248.5286 111.4760 15.56932616190265
TIBA-1                  
1 44800U 19080A   23130.26368856  .00000158  00000+0  00000+0 0  9999
2 44800   0.0577   9.9075 0002123  45.5504 302.7574  1.00271606 12686
INMARSAT GX5            
1 44801U 19080B   23130.39632713  .00000077  00000+0  00000+0 0  9990
2 44801   0.0474  25.2655 0002032  25.5338 330.8713  1.00274664 12730
CARTOSAT-3              
1 44804U 19081A   23130.78338281  .00006187  00000+0  29442-3 0  9993
2 44804  97.3490 189.7480 0013749 146.9912 340.5102 15.19435433191337
FLOCK 4P-11             
1 44809U 19081F   23130.17983794  .00031300  00000+0  71433-3 0  9998
2 44809  97.3527 200.0088 0008406 127.4642 232.7372 15.42793237191990
FLOCK 4P-7              
1 44816U 19081N   23130.41077011  .00031623  00000+0  69679-3 0  9996
2 44816  97.3546 200.6100 0006796 116.3166 243.8781 15.43852294192042
FLOCK 4P-5              
1 44818U 19081Q   23130.14236219  .00031658  00000+0  75148-3 0  9991
2 44818  97.3540 199.9384 0007434 129.2241 230.9666 15.41617031191975
GAOFEN 12-01            
1 44819U 19082A   23130.81597273  .00000704  00000+0  98411-4 0  9994
2 44819  97.8424 149.1922 0001512  89.5590 270.5800 14.80622198186373
COSMOS 2543             
1 44835U 19079D   23130.53985560  .00022689  00000+0  58260-3 0  9990
2 44835  97.7320 220.4233 0072793   8.1466 352.0940 15.36582752187781
JILIN-01 GAOFEN 2B      
1 44836U 19086A   23130.47741421  .00006707  00000+0  39001-3 0  9993
2 44836  97.6298 190.4848 0008059 331.0459 154.2189 15.12379226188666
COSMOS 2544 [GLONASS-M] 
1 44850U 19088A   23130.55731073  .00000074  00000+0  16595+1 0  9993
2 44850  65.0424 111.7115 0015175 262.9272 297.8744  2.13102315 26546
TYVAK-0092              
1 44852U 19089A   23130.19489364  .00019634  00000+0  11644-2 0  9993
2 44852  36.9632 303.2432 0008079  37.3016 322.8289 15.10636280187221
TYVAK-0129              
1 44853U 19089B   23130.19898889  .00024333  00000+0  14199-2 0  9990
2 44853  36.9627 304.1926 0008723  32.8997 327.2290 15.11160977187326
DUCHIFAT-3              
1 44854U 19089C   23129.90413171  .00008992  00000+0  61467-3 0  9999
2 44854  36.9648 319.9849 0010034 359.0691 109.6688 15.05659519187063
LEMUR-2-JPGSQUARED      
1 44855U 19089D   23129.81540014  .00023184  00000+0  13263-2 0  9997
2 44855  36.9645 309.5055 0008631  14.1323 345.9663 15.11886750187239
QPS-SAR-1 IZANAGI       
1 44856U 19089E   23130.43401022  .00018342  00000+0  11136-2 0  9990
2 44856  36.9681 315.1338 0008329   2.2758  78.8587 15.09804131187227
RISAT-2BR1              
1 44857U 19089F   23130.50658857  .00005265  00000+0  43598-3 0  9997
2 44857  36.9659 341.3171 0011502 333.8516  26.1648 14.98642866186945
IHOPSAT-TD              
1 44859U 19089H   23130.51002278  .00003907  00000+0  30709-3 0  9991
2 44859  36.9711 333.8874 0006915 316.6635  43.3562 15.00885017186964
LEMUR-2-HIMOMANDDAD     
1 44860U 19089J   23130.54286045  .00027931  00000+0  15947-2 0  9991
2 44860  36.9654 306.9683 0008827  16.5214 343.5818 15.11909137187203
LEMUR-2-PAPPY           
1 44861U 19089K   23130.21654792  .00021543  00000+0  12826-2 0  9990
2 44861  36.9643 309.8949 0008302   9.9035 350.1873 15.10470612187209
LEMUR-2-THEODOSIA       
1 44863U 19089M   23130.17775126  .00028808  00000+0  16302-2 0  9996
2 44863  36.9628 307.7008 0008974  17.7280 342.3777 15.12219402187139
BEIDOU-3 M19            
1 44864U 19090A   23129.60571384  .00000040  00000+0  00000+0 0  9998
2 44864  55.6245 100.6000 0019707 277.1250 255.9062  1.86231890 23103
BEIDOU-3 M20            
1 44865U 19090B   23129.46691557  .00000040  00000+0  00000+0 0  9998
2 44865  55.6267 100.6376 0017701 289.1531 240.6308  1.86231851 23078
JCSAT-18 (KACIFIC 1)    
1 44868U 19091A   23130.59234149 -.00000200  00000+0  00000+0 0  9997
2 44868   0.0069  29.9234 0000408 100.0570 101.3796  1.00269913 12721
CSG-1                   
1 44873U 19092A   23130.41464266 -.00001130  00000+0 -13545-3 0  9996
2 44873  97.8875 314.4384 0001186  74.6412 285.4947 14.82143548183538
CHEOPS                  
1 44874U 19092B   23130.48062344  .00000602  00000+0  14326-3 0  9994
2 44874  98.2386 318.9159 0011715  46.8469 313.3707 14.57252676180416
ANGELS                  
1 44876U 19092D   23130.51891463  .00007250  00000+0  32974-3 0  9997
2 44876  97.4787 315.4683 0009792 302.0714  57.9570 15.20989211187891
EYESAT-NANO             
1 44877U 19092E   23130.52495624  .00055830  00000+0  14391-2 0  9997
2 44877  97.4600 320.2065 0007735 260.1640  99.8732 15.38976609188309
OPS-SAT                 
1 44878U 19092F   23130.48133200  .00037224  00000+0  11744-2 0  9998
2 44878  97.4772 318.7914 0008337 265.5904  94.4385 15.32735651188013
CAS-6 (TIANQIN 1)       
1 44881U 19093C   23130.49948511  .00001307  00000+0  16936-3 0  9995
2 44881  97.8614 209.5919 0014185 195.7453 164.3325 14.82449122183216
CBERS 4A                
1 44883U 19093E   23130.85741943 -.00015667  00000+0 -19979-2 0  9992
2 44883  97.8630 209.9982 0000994 116.1579  19.7835 14.81486487183267
FLORIPASAT-1            
1 44885U 19093G   23130.76640746  .00004673  00000+0  54628-3 0  9997
2 44885  97.8679 212.3494 0013449 196.5465 163.5326 14.85517773183397
ELEKTRO-L 3             
1 44903U 19095A   23130.07688368 -.00000095  00000+0  00000+0 0  9992
2 44903   0.0179 350.9270 0001362 109.3090 231.1095  1.00272525 12322
GONETS-M 14             
1 44905U 19096A   23130.48593380  .00000004  00000+0 -43619-4 0  9997
2 44905  82.5232  67.4784 0015010 104.3251 255.9499 12.42895236152862
GONETS-M 15             
1 44906U 19096B   23130.43244145  .00000017  00000+0  49286-4 0  9994
2 44906  82.5263  67.7825 0016429 126.1607 234.0997 12.42894354152847
